[Satellite]
VERSION=1.1
NAME=ONEWEB-0490
NICKNAME=ONEWEB-0490
TLE1=1 54113U 22138A   22321.58334491 -.00890561  00000+0 -13185+0 0  9994
TLE2=2 54113  87.4516 208.5612 0012124 186.5692 317.3930 14.78075847  4717
STATUS=0
